IRIDIUM 39              
1 25042U 97069D   25180.55723755  .00000311  00000+0  76135-4 0  9999
2 25042  86.3922 205.8300 0015486 265.1080  94.8356 14.49229309450758
IRIDIUM 38              
1 25043U 97069E   25180.55400821  .00000235  00000+0  70851-4 0  9990
2 25043  86.3957 227.9536 0004077  76.7518 283.4134 14.38124541447733
IRIDIUM 42              
1 25077U 97077A   25180.57539681  .00000259  00000+0  81906-4 0  9994
2 25077  86.3960 234.1292 0003047  88.3701 271.7845 14.36359750442972
IRIDIUM 44              
1 25078U 97077B   25180.56588881  .00000208  00000+0  59413-4 0  9992
2 25078  86.3964 216.0285 0002637  47.1500 312.9920 14.40248742445486
IRIDIUM 45              
1 25104U 97082A   25180.60919877  .00007298  00000+0  26021-3 0  9990
2 25104  86.3572  41.8588 0113417 285.4578  73.4163 15.22696212453939
IRIDIUM 24              
1 25105U 97082B   25180.17615895  .00000320  00000+0  91235-4 0  9995
2 25105  86.3896  75.2161 0013032  45.7435 314.4832 14.42107667444942
IRIDIUM 51              
1 25262U 98018A   25180.57167577  .00019836  00000+0  43181-3 0  9990
2 25262  86.3815  49.6976 0084443 200.8320 158.9488 15.40333923448933
IRIDIUM 57              
1 25273U 98019B   25180.43688586  .00000226  00000+0  71222-4 0  9997
2 25273  86.3980 140.1312 0002351  85.5163 274.6302 14.35899277426546
